NORAD_CAT_ID,OBJECT_NAME,OBJECT_TYPE,EPOCH,MEAN_MOTION,ECCENTRICITY,INCLINATION,RA_OF_ASC_NODE,ARG_OF_PERICENTER,MEAN_ANOMALY,BSTAR,MEAN_MOTION_DOT,MEAN_MOTION_DDOT,TLE_LINE0,TLE_LINE1,TLE_LINE2,SEMIMAJOR_AXIS,PERIOD,APOGEE,PERIGEE,DECAYED
51744.0,STARLINK-3452,PAYLOAD,2023-03-12 07:51:43,15.08840281,0.0002114,53.2146,187.4154,97.1878,262.9354,0.00049395,7.582e-05,0.0,0 STARLINK-3452,1 51744U 22016AG  23071.32758502  .00007582  00000-0  49395-3 0  9992,2 51744  53.2146 187.4154 0002114  97.1878 262.9354 15.08840281 59565,6917.88,95.438,541.207,538.282,0.0
51744.0,STARLINK-3452,PAYLOAD,2023-03-12 14:13:15,15.08863225,0.0002279,53.2159,186.2262,102.7221,257.4026,0.0013113,0.00020656,0.0,0 STARLINK-3452,1 51744U 22016AG  23071.59254127  .00020656  00000-0  13113-2 0  9990,2 51744  53.2159 186.2262 0002279 102.7221 257.4026 15.08863225 58548,6917.809,95.436,541.251,538.098,0.0
51744.0,STARLINK-3452,PAYLOAD,2023-03-13 07:42:30,15.08846114,0.0001656,53.2143,182.9558,99.1578,260.9601,0.00064494,9.993e-05,0.0,0 STARLINK-3452,1 51744U 22016AG  23072.32118257  .00009993  00000-0  64494-3 0  9995,2 51744  53.2143 182.9558 0001656  99.1578 260.9601 15.08846114 59710,6917.862,95.437,540.872,538.581,0.0
51744.0,STARLINK-3452,PAYLOAD,2023-03-14 05:57:54,15.08841983,7.86e-05,53.2156,178.7916,6.6955,353.4047,0.00079669,0.00012415,0.0,0 STARLINK-3452,1 51744U 22016AG  23073.24854814  .00012415  00000-0  79669-3 0  9996,2 51744  53.2156 178.7916 0000786   6.6955 353.4047 15.08841983 59856,6917.874,95.437,540.283,539.196,0.0
51744.0,STARLINK-3452,PAYLOAD,2023-03-14 13:54:49,15.08865288,9.26e-05,53.2154,177.3043,93.3892,266.7206,0.0013492,0.00021265,0.0,0 STARLINK-3452,1 51744U 22016AG  23073.57974227  .00021265  00000-0  13492-2 0  9997,2 51744  53.2154 177.3043 0000926  93.3892 266.7206 15.08865288 59902,6917.803,95.436,540.309,539.028,0.0
51744.0,STARLINK-3452,PAYLOAD,2023-03-15 05:48:40,15.08864157,9.14e-05,53.2155,174.3307,86.3972,273.7124,0.00086315,0.00013485,0.0,0 STARLINK-3452,1 51744U 22016AG  23074.24213863  .00013485  00000-0  86315-3 0  9994,2 51744  53.2155 174.3307 0000914  86.3972 273.7124 15.08864157 60005,6917.807,95.436,540.304,539.039,0.0
51744.0,STARLINK-3452,PAYLOAD,2023-03-15 12:10:12,15.0887625,0.0001312,53.2147,173.1407,123.0676,237.0442,0.0015583,0.00024624,0.0,0 STARLINK-3452,1 51744U 22016AG  23074.50709188  .00024624  00000-0  15583-2 0  9998,2 51744  53.2147 173.1407 0001312 123.0676 237.0442 15.08876250 58984,6917.77,95.435,540.542,538.727,0.0
51744.0,STARLINK-3452,PAYLOAD,2023-03-16 05:39:27,15.08827964,0.0001992,53.2144,169.8704,92.046,268.076,0.00035336,5.338e-05,0.0,0 STARLINK-3452,1 51744U 22016AG  23075.23573470  .00005338  00000-0  35336-3 0  9992,2 51744  53.2144 169.8704 0001992  92.0460 268.0760 15.08827964 60150,6917.917,95.438,541.16,538.404,0.0
51744.0,STARLINK-3452,PAYLOAD,2023-03-16 10:25:37,15.08816139,0.0001287,53.2149,168.9788,91.2474,268.8665,0.0013117,0.00020636,0.0,0 STARLINK-3452,1 51744U 22016AG  23075.43445804  .00020636  00000-0  13117-2 0  9993,2 51744  53.2149 168.9788 0001287  91.2474 268.8665 15.08816139 59129,6917.953,95.439,540.709,538.928,0.0
51744.0,STARLINK-3452,PAYLOAD,2023-03-16 15:11:47,15.08817264,0.0001738,53.2145,168.0858,84.3418,275.7772,0.0015585,0.00024587,0.0,0 STARLINK-3452,1 51744U 22016AG  23075.63318299  .00024587  00000-0  15585-2 0  9992,2 51744  53.2145 168.0858 0001738  84.3418 275.7772 15.08817264 60214,6917.95,95.439,541.017,538.613,0.0
51744.0,STARLINK-3452,PAYLOAD,2023-03-17 07:05:39,15.08810363,0.0001075,53.2135,165.1121,103.5815,256.5296,0.00042449,6.469e-05,0.0,0 STARLINK-3452,1 51744U 22016AG  23076.29559552  .00006469  00000-0  42449-3 0  9993,2 51744  53.2135 165.1121 0001075 103.5815 256.5296 15.08810363 60315,6917.971,95.439,540.58,539.092,0.0
51744.0,STARLINK-3452,PAYLOAD,2023-03-17 11:51:49,15.08819083,0.0001175,53.2142,164.2197,106.6427,253.4694,0.00059887,9.251e-05,0.0,0 STARLINK-3452,1 51744U 22016AG  23076.49431778  .00009251  00000-0  59887-3 0  9990,2 51744  53.2142 164.2197 0001175 106.6427 253.4694 15.08819083 59280,6917.944,95.439,540.622,538.996,0.0
51744.0,STARLINK-3452,PAYLOAD,2023-03-18 05:21:03,15.0885032,0.0001278,53.2127,160.9475,100.3598,259.7539,0.0011774,0.00018505,0.0,0 STARLINK-3452,1 51744U 22016AG  23077.22295865  .00018505  00000-0  11774-2 0  9991,2 51744  53.2127 160.9475 0001278 100.3598 259.7539 15.08850320 60456,6917.849,95.437,540.598,538.83,0.0
51744.0,STARLINK-3452,PAYLOAD,2023-03-18 11:42:35,15.08867485,0.0001213,53.2143,159.7601,91.0552,269.0579,0.0014244,0.00022471,0.0,0 STARLINK-3452,1 51744U 22016AG  23077.48791404  .00022471  00000-0  14244-2 0  9991,2 51744  53.2143 159.7601 0001213  91.0552 269.0579 15.08867485 59430,6917.796,95.436,540.501,538.822,0.0
51744.0,STARLINK-3452,PAYLOAD,2023-03-19 05:11:49,15.08871274,9.4e-05,53.2158,156.4901,79.1703,280.9395,0.00049852,7.662e-05,0.0,0 STARLINK-3452,1 51744U 22016AG  23078.21654181  .00007662  00000-0  49852-3 0  9992,2 51744  53.2158 156.4901 0000940  79.1703 280.9395 15.08871274 60604,6917.785,95.436,540.3,539.0,0.0
51744.0,STARLINK-3452,PAYLOAD,2023-03-19 11:33:21,15.08863986,0.0001212,53.2144,155.2987,104.3673,255.7454,0.0006874,0.00010676,0.0,0 STARLINK-3452,1 51744U 22016AG  23078.48150401  .00010676  00000-0  68740-3 0  9993,2 51744  53.2144 155.2987 0001212 104.3673 255.7454 15.08863986 60641,6917.807,95.436,540.511,538.834,0.0
51744.0,STARLINK-3452,PAYLOAD,2023-03-20 05:02:36,15.08843191,0.0001202,53.215,152.0296,91.8587,268.2543,0.00071133,0.00011052,0.0,0 STARLINK-3452,1 51744U 22016AG  23079.21014974  .00011052  00000-0  71133-3 0  9998,2 51744  53.2150 152.0296 0001202  91.8587 268.2543 15.08843191 60755,6917.871,95.437,540.567,538.904,0.0
51744.0,STARLINK-3452,PAYLOAD,2023-03-20 11:24:09,15.08845172,0.0001454,53.2146,150.8358,112.4428,247.6719,6.3565e-05,7.24e-06,0.0,0 STARLINK-3452,1 51744U 22016AG  23079.47510795  .00000724  00000-0  63565-4 0  9993,2 51744  53.2146 150.8358 0001454 112.4428 247.6719 15.08845172 59731,6917.865,95.437,540.735,538.724,0.0
51744.0,STARLINK-3452,PAYLOAD,2023-03-21 08:04:10,15.08843119,0.0001292,53.2151,146.9727,90.1835,269.9305,0.00018143,2.601e-05,0.0,0 STARLINK-3452,1 51744U 22016AG  23080.33623057  .00002601  00000-0  18143-3 0  9993,2 51744  53.2151 146.9727 0001292  90.1835 269.9305 15.08843119 60927,6917.871,95.437,540.63,538.842,0.0
51744.0,STARLINK-3452,PAYLOAD,2023-03-21 11:14:56,15.08846973,0.0001313,53.2152,146.3772,102.6511,257.4628,0.0001897,2.733e-05,0.0,0 STARLINK-3452,1 51744U 22016AG  23080.46870794  .00002733  00000-0  18970-3 0  9993,2 51744  53.2152 146.3772 0001313 102.6511 257.4628 15.08846973 59880,6917.859,95.437,540.632,538.816,0.0
51744.0,STARLINK-3452,PAYLOAD,2023-03-21 20:47:15,15.08839517,0.0001296,53.2148,144.5937,83.4534,276.6606,9.7069e-05,1.257e-05,0.0,0 STARLINK-3452,1 51744U 22016AG  23080.86615103  .00001257  00000-0  97069-4 0  9995,2 51744  53.2148 144.5937 0001296  83.4534 276.6606 15.08839517 59941,6917.882,95.438,540.643,538.85,0.0
51744.0,STARLINK-3452,PAYLOAD,2023-03-22 03:08:48,15.08837476,0.0001455,53.2156,143.4054,85.3773,274.7385,6.2346e-05,7.04e-06,0.0,0 STARLINK-3452,1 51744U 22016AG  23081.13111370  .00000704  00000-0  62346-4 0  9999,2 51744  53.2156 143.4054 0001455  85.3773 274.7385 15.08837476 61040,6917.888,95.438,540.76,538.747,0.0
51744.0,STARLINK-3452,PAYLOAD,2023-03-22 20:38:02,15.08844702,0.0001539,53.216,140.134,115.907,244.2081,-1.2591e-05,-4.88e-06,0.0,0 STARLINK-3452,1 51744U 22016AG  23081.85974932 -.00000488  00000-0 -12591-4 0  9997,2 51744  53.2160 140.1340 0001539 115.9070 244.2081 15.08844702 60099,6917.866,95.437,540.796,538.666,0.0
51744.0,STARLINK-3452,PAYLOAD,2023-03-23 04:34:58,15.08842862,0.0001509,53.2169,138.6474,98.4885,261.6279,7.1265e-05,8.46e-06,0.0,0 STARLINK-3452,1 51744U 22016AG  23082.19095160  .00000846  00000-0  71265-4 0  9991,2 51744  53.2169 138.6474 0001509  98.4885 261.6279 15.08842862 61205,6917.872,95.437,540.781,538.693,0.0
51744.0,STARLINK-3452,PAYLOAD,2023-03-23 10:56:30,15.08848978,0.0001524,53.2164,137.4581,100.245,259.8714,0.00012896,1.765e-05,0.0,0 STARLINK-3452,1 51744U 22016AG  23082.45590804  .00001765  00000-0  12896-3 0  9990,2 51744  53.2164 137.4581 0001524 100.2450 259.8714 15.08848978 60186,6917.853,95.437,540.772,538.664,0.0
51744.0,STARLINK-3452,PAYLOAD,2023-03-23 20:28:49,15.08851859,0.0001313,53.2157,135.6743,87.6833,272.431,0.00026411,3.919e-05,0.0,0 STARLINK-3452,1 51744U 22016AG  23082.85334588  .00003919  00000-0  26411-3 0  9990,2 51744  53.2157 135.6743 0001313  87.6833 272.4310 15.08851859 60249,6917.844,95.437,540.617,538.801,0.0
51744.0,STARLINK-3452,PAYLOAD,2023-03-24 02:50:21,15.08852661,0.0001342,53.2157,134.4849,87.0878,273.0268,0.00025565,3.784e-05,0.0,0 STARLINK-3452,1 51744U 22016AG  23083.11830422  .00003784  00000-0  25565-3 0  9997,2 51744  53.2157 134.4849 0001342  87.0878 273.0268 15.08852661 61341,6917.842,95.437,540.635,538.778,0.0
51744.0,STARLINK-3452,PAYLOAD,2023-03-24 10:47:16,15.0888801,0.000147,53.2153,132.9967,76.5554,283.5602,0.0010896,0.00017118,0.0,0 STARLINK-3452,1 51744U 22016AG  23083.44949279  .00017118  00000-0  10896-2 0  9990,2 51744  53.2153 132.9967 0001470  76.5554 283.5602 15.08888010 61397,6917.734,95.435,540.616,538.582,0.0
51744.0,STARLINK-3452,PAYLOAD,2023-03-24 20:19:35,15.08846407,0.0001499,53.2149,131.2127,90.8927,269.2237,-0.00015389,-2.737e-05,0.0,0 STARLINK-3452,1 51744U 22016AG  23083.84693899 -.00002737  00000-0 -15389-3 0  9994,2 51744  53.2149 131.2127 0001499  90.8927 269.2237 15.08846407 61452,6917.861,95.437,540.763,538.689,0.0
51744.0,STARLINK-3452,PAYLOAD,2023-03-25 02:41:09,15.08814441,0.0001572,53.2146,130.0247,100.615,259.5019,-0.00070733,-0.0001152,0.0,0 STARLINK-3452,1 51744U 22016AG  23084.11191084 -.00011520  00000-0 -70733-3 0  9998,2 51744  53.2146 130.0247 0001572 100.6150 259.5019 15.08814441 61496,6917.959,95.439,540.911,538.736,0.0
